{"type": "FeatureCollection", "features": [{"type": "Feature", "properties": {"norad_id": 22490, "name": "SCD 1", "group": "resource", "lat": -17.40556582659022, "lon": 159.63728376755967, "alt_km": 762.0966512363939, "timestamp": "2025-12-25T03:55:55.962565+00:00", "meta": {"OBJECT_NAME": "SCD 1", "OBJECT_ID": "1993-009B", "EPOCH": "2025-12-24T16:48:10.228032", "MEAN_MOTION": 14.46006587, "ECCENTRICITY": 0.004218, "INCLINATION": 24.9676, "RA_OF_ASC_NODE": 204.8525, "ARG_OF_PERICENTER": 91.3643, "MEAN_ANOMALY": 324.9394, "EPHEMERIS_TYPE": 0, "CLASSIFICATION_TYPE": "U", "NORAD_CAT_ID": 22490, "ELEMENT_SET_NO": 999, "REV_AT_EPOCH": 73583, "BSTAR": 7.822e-05, "MEAN_MOTION_DOT": 4.71e-06, "MEAN_MOTION_DDOT": 0}, "tle": {"line1": "1 22490U 93009B   25358.70011838  .00000471  00000+0  78220-4 0  9993", "line2": "2 22490  24.9676 204.8525 0042180  91.3643 324.9394 14.46006587735831"}}, "geometry": {"type": "Point", "coordinates": [159.63728376755967, -17.40556582659022]}}, {"type": "Feature", "properties": {"norad_id": 25397, "name": "TECHSAT 1B (GO-32)", "group": "resource", "lat": 57.56589000828849, "lon": 177.09424216486622, "alt_km": 804.8850512694153, "timestamp": "2025-12-25T03:55:55.962599+00:00", "meta": {"OBJECT_NAME": "TECHSAT 1B (GO-32)", "OBJECT_ID": "1998-043D", "EPOCH": "2025-12-24T20:37:17.747616", "MEAN_MOTION": 14.24380271, "ECCENTRICITY": 0.0001668, "INCLINATION": 98.9932, "RA_OF_ASC_NODE": 342.3516, "ARG_OF_PERICENTER": 37.3772, "MEAN_ANOMALY": 322.7522, "EPHEMERIS_TYPE": 0, "CLASSIFICATION_TYPE": "U", "NORAD_CAT_ID": 25397, "ELEMENT_SET_NO": 999, "REV_AT_EPOCH": 42651, "BSTAR": 5.2942e-05, "MEAN_MOTION_DOT": 7.6e-07, "MEAN_MOTION_DDOT": 0}, "tle": {"line1": "1 25397U 98043D   25358.85923319  .00000076  00000+0  52942-4 0  9991", "line2": "2 25397  98.9932 342.3516 0001668  37.3772 322.7522 14.24380271426515"}}, "geometry": {"type": "Point", "coordinates": [177.09424216486622, 57.56589000828849]}}, {"type": "Feature", "properties": {"norad_id": 25504, "name": "SCD 2", "group": "resource", "lat": -15.393190951346714, "lon": 29.066520642722768, "alt_km": 747.0483333110151, "timestamp": "2025-12-25T03:55:55.962616+00:00", "meta": {"OBJECT_NAME": "SCD 2", "OBJECT_ID": "1998-060A", "EPOCH": "2025-12-24T13:48:55.433376", "MEAN_MOTION": 14.45429519, "ECCENTRICITY": 0.0017063, "INCLINATION": 24.9954, "RA_OF_ASC_NODE": 68.9145, "ARG_OF_PERICENTER": 78.1649, "MEAN_ANOMALY": 56.1547, "EPHEMERIS_TYPE": 0, "CLASSIFICATION_TYPE": "U", "NORAD_CAT_ID": 25504, "ELEMENT_SET_NO": 999, "REV_AT_EPOCH": 43503, "BSTAR": 7.2332e-05, "MEAN_MOTION_DOT": 4.41e-06, "MEAN_MOTION_DDOT": 0}, "tle": {"line1": "1 25504U 98060A   25358.57564159  .00000441  00000+0  72332-4 0  9993", "line2": "2 25504  24.9954  68.9145 0017063  78.1649  56.1547 14.45429519435033"}}, "geometry": {"type": "Point", "coordinates": [29.066520642722768, -15.393190951346714]}}, {"type": "Feature", "properties": {"norad_id": 25757, "name": "DLR-TUBSAT", "group": "resource", "lat": 30.530695997809318, "lon": 169.21584428820088, "alt_km": 706.2789552267122, "timestamp": "2025-12-25T03:55:55.962631+00:00", "meta": {"OBJECT_NAME": "DLR-TUBSAT", "OBJECT_ID": "1999-029B", "EPOCH": "2025-12-17T13:22:10.787520", "MEAN_MOTION": 14.52359578, "ECCENTRICITY": 0.00141996, "INCLINATION": 98.6566, "RA_OF_ASC_NODE": 336.2196, "ARG_OF_PERICENTER": 177.8976, "MEAN_ANOMALY": 182.2281, "EPHEMERIS_TYPE": 0, "CLASSIFICATION_TYPE": "U", "NORAD_CAT_ID": 25757, "ELEMENT_SET_NO": 999, "REV_AT_EPOCH": 40688, "BSTAR": 3.7650132e-05, "MEAN_MOTION_DOT": 1.05e-06, "MEAN_MOTION_DDOT": 0}, "tle": {"line1": "1 25757U 99029B   25351.55706930  .00000105  00000+0  37650-4 0  9996", "line2": "2 25757  98.6566 336.2196 0014199 177.8976 182.2281 14.52359578406886"}}, "geometry": {"type": "Point", "coordinates": [169.21584428820088, 30.530695997809318]}}, {"type": "Feature", "properties": {"norad_id": 25994, "name": "TERRA", "group": "resource", "lat": -52.656352562219446, "lon": -140.19353273272625, "alt_km": 699.5321077244507, "timestamp": "2025-12-25T03:55:55.962644+00:00", "meta": {"OBJECT_NAME": "TERRA", "OBJECT_ID": "1999-068A", "EPOCH": "2025-12-24T19:04:13.482336", "MEAN_MOTION": 14.60914783, "ECCENTRICITY": 0.0003436, "INCLINATION": 97.9732, "RA_OF_ASC_NODE": 50.0357, "ARG_OF_PERICENTER": 70.5699, "MEAN_ANOMALY": 21.9478, "EPHEMERIS_TYPE": 0, "CLASSIFICATION_TYPE": "U", "NORAD_CAT_ID": 25994, "ELEMENT_SET_NO": 999, "REV_AT_EPOCH": 38414, "BSTAR": 0.00010161, "MEAN_MOTION_DOT": 4.53e-06, "MEAN_MOTION_DDOT": 0}, "tle": {"line1": "1 25994U 99068A   25358.79460049  .00000453  00000+0  10161-3 0  9996", "line2": "2 25994  97.9732  50.0357 0003436  70.5699  21.9478 14.60914783384144"}}, "geometry": {"type": "Point", "coordinates": [-140.19353273272625, -52.656352562219446]}}, {"type": "Feature", "properties": {"norad_id": 27004, "name": "MAROC-TUBSAT", "group": "resource", "lat": 44.74815924732059, "lon": -2.3177121147609734, "alt_km": 995.4210878935146, "timestamp": "2025-12-25T03:55:55.962657+00:00", "meta": {"OBJECT_NAME": "MAROC-TUBSAT", "OBJECT_ID": "2001-056D", "EPOCH": "2025-12-24T16:49:19.722144", "MEAN_MOTION": 13.70253456, "ECCENTRICITY": 0.0019266, "INCLINATION": 99.7916, "RA_OF_ASC_NODE": 167.3555, "ARG_OF_PERICENTER": 228.421, "MEAN_ANOMALY": 143.7745, "EPHEMERIS_TYPE": 0, "CLASSIFICATION_TYPE": "U", "NORAD_CAT_ID": 27004, "ELEMENT_SET_NO": 999, "REV_AT_EPOCH": 20229, "BSTAR": 2.3048e-05, "MEAN_MOTION_DOT": -2.6e-07, "MEAN_MOTION_DDOT": 0}, "tle": {"line1": "1 27004U 01056D   25358.70092271 -.00000026  00000+0  23048-4 0  9995", "line2": "2 27004  99.7916 167.3555 0019266 228.4210 143.7745 13.70253456202293"}}, "geometry": {"type": "Point", "coordinates": [-2.3177121147609734, 44.74815924732059]}}, {"type": "Feature", "properties": {"norad_id": 27424, "name": "AQUA", "group": "resource", "lat": 30.260230262945115, "lon": 145.19500984717442, "alt_km": 685.0722513346782, "timestamp": "2025-12-25T03:55:55.962669+00:00", "meta": {"OBJECT_NAME": "AQUA", "OBJECT_ID": "2002-022A", "EPOCH": "2025-12-24T19:18:33.413760", "MEAN_MOTION": 14.61757572, "ECCENTRICITY": 0.0001809, "INCLINATION": 98.4055, "RA_OF_ASC_NODE": 319.881, "ARG_OF_PERICENTER": 102.1365, "MEAN_ANOMALY": 317.5474, "EPHEMERIS_TYPE": 0, "CLASSIFICATION_TYPE": "U", "NORAD_CAT_ID": 27424, "ELEMENT_SET_NO": 999, "REV_AT_EPOCH": 25779, "BSTAR": 0.00019561, "MEAN_MOTION_DOT": 9.26e-06, "MEAN_MOTION_DDOT": 0}, "tle": {"line1": "1 27424U 02022A   25358.80455340  .00000926  00000+0  19561-3 0  9998", "line2": "2 27424  98.4055 319.8810 0001809 102.1365 317.5474 14.61757572257794"}}, "geometry": {"type": "Point", "coordinates": [145.19500984717442, 30.260230262945115]}}, {"type": "Feature", "properties": {"norad_id": 28051, "name": "IRS-P6 (RESOURCESAT-1)", "group": "resource", "lat": -54.99723456014926, "lon": 50.90030701449686, "alt_km": 822.2377906553502, "timestamp": "2025-12-25T03:55:55.962680+00:00", "meta": {"OBJECT_NAME": "IRS-P6 (RESOURCESAT-1)", "OBJECT_ID": "2003-046A", "EPOCH": "2025-12-24T20:38:03.338304", "MEAN_MOTION": 14.36079099, "ECCENTRICITY": 0.006488, "INCLINATION": 98.2158, "RA_OF_ASC_NODE": 38.704, "ARG_OF_PERICENTER": 144.5012, "MEAN_ANOMALY": 28.3138, "EPHEMERIS_TYPE": 0, "CLASSIFICATION_TYPE": "U", "NORAD_CAT_ID": 28051, "ELEMENT_SET_NO": 999, "REV_AT_EPOCH": 15550, "BSTAR": 1.4141e-06, "MEAN_MOTION_DOT": -3.6e-07, "MEAN_MOTION_DDOT": 0}, "tle": {"line1": "1 28051U 03046A   25358.85976086 -.00000036  00000+0  14141-5 0  9996", "line2": "2 28051  98.2158  38.7040 0064880 144.5012  28.3138 14.36079099155505"}}, "geometry": {"type": "Point", "coordinates": [50.90030701449686, -54.99723456014926]}}, {"type": "Feature", "properties": {"norad_id": 28220, "name": "SHIYAN-1 (SY-1)", "group": "resource", "lat": -23.59806046734984, "lon": 64.91061944793258, "alt_km": 484.3866776186069, "timestamp": "2025-12-25T03:55:55.962692+00:00", "meta": {"OBJECT_NAME": "SHIYAN-1 (SY-1)", "OBJECT_ID": "2004-012A", "EPOCH": "2025-12-24T15:27:59.538240", "MEAN_MOTION": 15.28445805, "ECCENTRICITY": 0.0005113, "INCLINATION": 97.8916, "RA_OF_ASC_NODE": 60.8865, "ARG_OF_PERICENTER": 275.1255, "MEAN_ANOMALY": 84.9399, "EPHEMERIS_TYPE": 0, "CLASSIFICATION_TYPE": "U", "NORAD_CAT_ID": 28220, "ELEMENT_SET_NO": 999, "REV_AT_EPOCH": 18438, "BSTAR": 0.00051606, "MEAN_MOTION_DOT": 0.00014225, "MEAN_MOTION_DDOT": 0}, "tle": {"line1": "1 28220U 04012A   25358.64443910  .00014225  00000+0  51606-3 0  9999", "line2": "2 28220  97.8916  60.8865 0005113 275.1255  84.9399 15.28445805184384"}}, "geometry": {"type": "Point", "coordinates": [64.91061944793258, -23.59806046734984]}}, {"type": "Feature", "properties": {"norad_id": 28376, "name": "AURA", "group": "resource", "lat": -61.29237155747401, "lon": 113.95088359102299, "alt_km": 698.082812643026, "timestamp": "2025-12-25T03:55:55.962704+00:00", "meta": {"OBJECT_NAME": "AURA", "OBJECT_ID": "2004-026A", "EPOCH": "2025-12-24T20:15:05.050944", "MEAN_MOTION": 14.60973195, "ECCENTRICITY": 0.0001431, "INCLINATION": 98.3202, "RA_OF_ASC_NODE": 309.1278, "ARG_OF_PERICENTER": 90.8782, "MEAN_ANOMALY": 269.2582, "EPHEMERIS_TYPE": 0, "CLASSIFICATION_TYPE": "U", "NORAD_CAT_ID": 28376, "ELEMENT_SET_NO": 999, "REV_AT_EPOCH": 14075, "BSTAR": 0.00022236, "MEAN_MOTION_DOT": 1.042e-05, "MEAN_MOTION_DDOT": 0}, "tle": {"line1": "1 28376U 04026A   25358.84380846  .00001042  00000+0  22236-3 0  9996", "line2": "2 28376  98.3202 309.1278 0001431  90.8782 269.2582 14.60973195140751"}}, "geometry": {"type": "Point", "coordinates": [113.95088359102299, -61.29237155747401]}}]}